$$SOE
2461295.500000000, A.D. 2026-Sep-12 00:00:00.0000, 4.068377765833100E+08, 2.329528966016751E+08, -4.467288391007981E+07,
2461302.500000000, A.D. 2026-Sep-19 00:00:00.0000, 4.013561093701566E+08, 2.415244236572497E+08, -4.328237823091257E+07,
2461309.500000000, A.D. 2026-Sep-26 00:00:00.0000, 3.956872869281714E+08, 2.499832913951225E+08, -4.187168787232134E+07,
2461316.500000000, A.D. 2026-Oct-03 00:00:00.0000, 3.898333481481979E+08, 2.583251721475148E+08, -4.044140680308106E+07,
2461323.500000000, A.D. 2026-Oct-10 00:00:00.0000, 3.837964394208040E+08, 2.665457691190197E+08, -3.899214282074282E+07,
2461330.500000000, A.D. 2026-Oct-17 00:00:00.0000, 3.775788146341532E+08, 2.746408194447284E+08, -3.752451735308826E+07,
2461337.500000000, A.D. 2026-Oct-24 00:00:00.0000, 3.711828350734221E+08, 2.826060971883233E+08, -3.603916525150681E+07,
2461344.500000000, A.D. 2026-Oct-31 00:00:00.0000, 3.646109693170850E+08, 2.904374162089819E+08, -3.453673459021735E+07,
2461351.500000000, A.D. 2026-Nov-07 00:00:00.0000, 3.578657934650390E+08, 2.981306329666785E+08, -3.301788649576700E+07,
2461358.500000000, A.D. 2026-Nov-14 00:00:00.0000, 3.509499918948319E+08, 3.056816501487586E+08, -3.148329495215970E+07,
2461365.500000000, A.D. 2026-Nov-21 00:00:00.0000, 3.438663567282804E+08, 3.130864217957519E+08, -2.993364635907109E+07,
2461372.500000000, A.D. 2026-Nov-28 00:00:00.0000, 3.366177850063221E+08, 3.203409569182225E+08, -2.836963899703455E+07,
2461379.500000000, A.D. 2026-Dec-05 00:00:00.0000, 3.292072771928734E+08, 3.274413209483606E+08, -2.679198278553970E+07,
2461386.500000000, A.D. 2026-Dec-12 00:00:00.0000, 3.216379371732102E+08, 3.343836381332461E+08, -2.520139909508014E+07,
2461393.500000000, A.D. 2026-Dec-19 00:00:00.0000, 3.139129718583050E+08, 3.411640948713846E+08, -2.359862043931207E+07,
2461400.500000000, A.D. 2026-Dec-26 00:00:00.0000, 3.060356902514879E+08, 3.477789431198071E+08, -2.198439010499205E+07,
2461407.500000000, A.D. 2027-Jan-02 00:00:00.0000, 2.980095022517982E+08, 3.542245036757592E+08, -2.035946176043986E+07,
2461414.500000000, A.D. 2027-Jan-09 00:00:00.0000, 2.898379173089333E+08, 3.604971693477972E+08, -1.872459905150136E+07,
2461421.500000000, A.D. 2027-Jan-16 00:00:00.0000, 2.815245429625970E+08, 3.665934080196816E+08, -1.708057518750374E+07,
2461428.500000000, A.D. 2027-Jan-23 00:00:00.0000, 2.730730833094317E+08, 3.725097655620836E+08, -1.542817252473244E+07,
2461435.500000000, A.D. 2027-Jan-30 00:00:00.0000, 2.644873375826001E+08, 3.782428685392395E+08, -1.376818216874932E+07,
2461442.500000000, A.D. 2027-Feb-06 00:00:00.0000, 2.557711992668050E+08, 3.837894270457637E+08, -1.210140360709421E+07,
2461449.500000000, A.D. 2027-Feb-13 00:00:00.0000, 2.469286552872628E+08, 3.891462388873337E+08, -1.042864423101886E+07,
2461456.500000000, A.D. 2027-Feb-20 00:00:00.0000, 2.379637829059702E+08, 3.943101943066053E+08, -8.750718594468832E+06,
2461463.500000000, A.D. 2027-Feb-27 00:00:00.0000, 2.288807457185014E+08, 3.992782780364369E+08, -7.068447801306933E+06,
2461470.500000000, A.D. 2027-Mar-06 00:00:00.0000, 2.196837917710914E+08, 4.040475705999748E+08, -5.382659141309828E+06,
2461477.500000000, A.D. 2027-Mar-13 00:00:00.0000, 2.103772521991792E+08, 4.086152509006140E+08, -3.694185661503166E+06,
2461484.500000000, A.D. 2027-Mar-20 00:00:00.0000, 2.009655392581604E+08, 4.129785992607372E+08, -2.003865638089001E+06,
2461491.500000000, A.D. 2027-Mar-27 00:00:00.0000, 1.914531439492152E+08, 4.171350003548245E+08, -3.125420130175948E+05,
2461498.500000000, A.D. 2027-Apr-03 00:00:00.0000, 1.818446334446545E+08, 4.210819459838850E+08, 1.378938181570232E+06,
2461505.500000000, A.D. 2027-Apr-10 00:00:00.0000, 1.721446483759268E+08, 4.248170377089156E+08, 3.069724406569868E+06,
2461512.500000000, A.D. 2027-Apr-17 00:00:00.0000, 1.623579000085133E+08, 4.283379893236964E+08, 4.758963202874690E+06,
2461519.500000000, A.D. 2027-Apr-24 00:00:00.0000, 1.524891673852848E+08, 4.316426290994827E+08, 6.445798768982530E+06,
2461526.500000000, A.D. 2027-May-01 00:00:00.0000, 1.425432947405479E+08, 4.347289018245165E+08, 8.129373503288954E+06,
2461533.500000000, A.D. 2027-May-08 00:00:00.0000, 1.325251894955331E+08, 4.375948713825755E+08, 9.808828543236583E+06,
2461540.500000000, A.D. 2027-May-15 00:00:00.0000, 1.224398193429549E+08, 4.402387248188310E+08, 1.148330451558328E+07,
2461547.500000000, A.D. 2027-May-22 00:00:00.0000, 1.122922068596644E+08, 4.426587752938330E+08, 1.315194242859030E+07,
2461554.500000000, A.D. 2027-May-29 00:00:00.0000, 1.020874250049193E+08, 4.448534624535995E+08, 1.481388427778381E+07,
2461561.500000000, A.D. 2027-Jun-05 00:00:00.0000, 9.183059439435980E+07, 4.468213533461320E+08, 1.646827353923562E+07,
2461568.500000000, A.D. 2027-Jun-12 00:00:00.0000, 8.152688034779903E+07, 4.485611443116159E+08, 1.811425576885408E+07,
2461575.500000000, A.D. 2027-Jun-19 00:00:00.0000, 7.118148938439500E+07, 4.500716629066470E+08, 1.975097926086524E+07,
2461582.500000000, A.D. 2027-Jun-26 00:00:00.0000, 6.079966544975431E+07, 4.513518695974135E+08, 2.137759571776029E+07,
2461589.500000000, A.D. 2027-Jul-03 00:00:00.0000, 5.038668601297602E+07, 4.524008592262960E+08, 2.299326091946852E+07,
2461596.500000000, A.D. 2027-Jul-10 00:00:00.0000, 3.994785807662626E+07, 4.532178622560669E+08, 2.459713538818520E+07,
2461603.500000000, A.D. 2027-Jul-17 00:00:00.0000, 2.948851414171814E+07, 4.538022457476553E+08, 2.618838504134712E+07,
2461610.500000000, A.D. 2027-Jul-24 00:00:00.0000, 1.901400828886731E+07, 4.541535140037810E+08, 2.776618181226566E+07,
2461617.500000000, A.D. 2027-Jul-31 00:00:00.0000, 8.529712790976388E+06, 4.542713091109046E+08, 2.932970421906281E+07,
2461624.500000000, A.D. 2027-Aug-07 00:00:00.0000, -1.958984938727974E+06, 4.541554125311219E+08, 3.087813799373731E+07,
2461631.500000000, A.D. 2027-Aug-14 00:00:00.0000, -1.244668735730979E+07, 4.538057474909943E+08, 3.241067696088764E+07,
2461638.500000000, A.D. 2027-Aug-21 00:00:00.0000, -2.292799313615549E+07, 4.532223788002448E+08, 3.392652383346289E+07,
2461645.500000000, A.D. 2027-Aug-28 00:00:00.0000, -3.339750140227483E+07, 4.524055113033299E+08, 3.542489070842546E+07,
2461652.500000000, A.D. 2027-Sep-04 00:00:00.0000, -4.384981505035286E+07, 4.513554894681138E+08, 3.690499957413378E+07,
2461659.500000000, A.D. 2027-Sep-11 00:00:00.0000, -5.427954451263733E+07, 4.500727974490970E+08, 3.836608290199843E+07,
2461666.500000000, A.D. 2027-Sep-18 00:00:00.0000, -6.468131184667876E+07, 4.485580589733833E+08, 3.980738425569910E+07,
2461673.500000000, A.D. 2027-Sep-25 00:00:00.0000, -7.504975490569332E+07, 4.468120369713074E+08, 4.122815888933676E+07,
2461680.500000000, A.D. 2027-Oct-02 00:00:00.0000, -8.537953151007180E+07, 4.448356329796925E+08, 4.262767432863474E+07,
2461687.500000000, A.D. 2027-Oct-09 00:00:00.0000, -9.566532359105428E+07, 4.426298863141753E+08, 4.400521093155393E+07,
2461694.500000000, A.D. 2027-Oct-16 00:00:00.0000, -1.059018412368424E+08, 4.401959729570345E+08, 4.536006241689283E+07,
2461701.500000000, A.D. 2027-Oct-23 00:00:00.0000, -1.160838263748151E+08, 4.375352041564451E+08, 4.669153633550051E+07,
2461708.500000000, A.D. 2027-Oct-30 00:00:00.0000, -1.262060557090934E+08, 4.346490253497105E+08, 4.799895449867979E+07,
2461715.500000000, A.D. 2027-Nov-06 00:00:00.0000, -1.362633440709422E+08, 4.315390165423112E+08, 4.928165356193557E+07,
2461722.500000000, A.D. 2027-Nov-13 00:00:00.0000, -1.462505501598136E+08, 4.282068920699041E+08, 5.053898577561229E+07,
2461729.500000000, A.D. 2027-Nov-20 00:00:00.0000, -1.561625817661246E+08, 4.246544975572935E+08, 5.177031945657167E+07,
2461736.500000000, A.D. 2027-Nov-27 00:00:00.0000, -1.659943988545596E+08, 4.208838070415962E+08, 5.297503927435055E+07,
2461743.500000000, A.D. 2027-Dec-04 00:00:00.0000, -1.757410165263713E+08, 4.168969211795886E+08, 5.415254661180678E+07,
2461750.500000000, A.D. 2027-Dec-11 00:00:00.0000, -1.853975084048103E+08, 4.126960655794245E+08, 5.530225997145224E+07,
2461757.500000000, A.D. 2027-Dec-18 00:00:00.0000, -1.949590101631133E+08, 4.082835889211595E+08, 5.642361537407994E+07,
2461764.500000000, A.D. 2027-Dec-25 00:00:00.0000, -2.044207230379914E+08, 4.036619608680913E+08, 5.751606673523396E+07,
2461771.500000000, A.D. 2028-Jan-01 00:00:00.0000, -2.137779172822423E+08, 3.988337697881151E+08, 5.857908621664453E+07,
$$EOE